start=new Date('2022-08-19T00:00:00.000Z').valueOf();
sats=[{"MEAN_ELEMENT_THEORY":"SGP4","CLASSIFICATION_TYPE":"U","OBJECT_TYPE":"PAYLOAD","LAUNCH_DATE":"2022-05-13","ARG_OF_PERICENTER":"54.9610","CENTER_NAME":"EARTH","REV_AT_EPOCH":"130","NORAD_CAT_ID":"52550","OBJECT_ID":"2022-051T","DECAY_DATE":null,"MEAN_ANOMALY":"53.0807","SEMIMAJOR_AXIS":"6917.889","GP_ID":"210477558","BSTAR":"0.00138840000000","INCLINATION":"53.2164","TLE_LINE2":"2 52550  53.2164 199.5231 0002010  54.9610  53.0807 15.08837224  1305","RA_OF_ASC_NODE":"199.5231","FILE":"3539615","TLE_LINE1":"1 52550U 22051T   22230.91667824  .00021876  00000-0  13884-2 0  9999","SITE":"AFWTR","EPOCH":"2022-08-18T22:00:00.999936","COUNTRY_CODE":"US","EPHEMERIS_TYPE":"0","PERIAPSIS":"538.363","ELEMENT_SET_NO":"999","TIME_SYSTEM":"UTC","MEAN_MOTION_DDOT":"0.0000000000000","REF_FRAME":"TEME","APOAPSIS":"541.144","MEAN_MOTION":"15.08837224","RCS_SIZE":"LARGE","ECCENTRICITY":"0.00020100","PERIOD":"95.438","MEAN_MOTION_DOT":"0.00021876","OBJECT_NAME":"STARLINK-3965"},{"DECAY_DATE":null,"MEAN_ANOMALY":"9.0039","NORAD_CAT_ID":"52551","OBJECT_ID":"2022-051U","FILE":"3539615","RA_OF_ASC_NODE":"199.5238","INCLINATION":"53.2165","TLE_LINE2":"2 52551  53.2165 199.5238 0002131  59.0063   9.0039 15.08843755  1300","GP_ID":"210477831","SEMIMAJOR_AXIS":"6917.869","BSTAR":"0.00161020000000","CLASSIFICATION_TYPE":"U","MEAN_ELEMENT_THEORY":"SGP4","REV_AT_EPOCH":"130","LAUNCH_DATE":"2022-05-13","ARG_OF_PERICENTER":"59.0063","CENTER_NAME":"EARTH","OBJECT_TYPE":"PAYLOAD","REF_FRAME":"TEME","MEAN_MOTION_DDOT":"0.0000000000000","ELEMENT_SET_NO":"999","TIME_SYSTEM":"UTC","PERIOD":"95.437","MEAN_MOTION_DOT":"0.00025434","ECCENTRICITY":"0.00021310","OBJECT_NAME":"STARLINK-3969","MEAN_MOTION":"15.08843755","RCS_SIZE":"LARGE","APOAPSIS":"541.208","EPOCH":"2022-08-18T22:00:00.999936","COUNTRY_CODE":"US","TLE_LINE1":"1 52551U 22051U   22230.91667824  .00025434  00000-0  16102-2 0  9990","SITE":"AFWTR","EPHEMERIS_TYPE":"0","PERIAPSIS":"538.260"},{"EPHEMERIS_TYPE":"0","PERIAPSIS":"538.761","TLE_LINE1":"1 52552U 22051V   22230.91667824  .00019732  00000-0  12546-2 0  9993","SITE":"AFWTR","EPOCH":"2022-08-18T22:00:00.999936","COUNTRY_CODE":"US","APOAPSIS":"540.767","RCS_SIZE":"LARGE","MEAN_MOTION":"15.08834014","PERIOD":"95.438","OBJECT_NAME":"STARLINK-3966","MEAN_MOTION_DOT":"0.00019732","ECCENTRICITY":"0.00014500","ELEMENT_SET_NO":"999","TIME_SYSTEM":"UTC","MEAN_MOTION_DDOT":"0.0000000000000","REF_FRAME":"TEME","OBJECT_TYPE":"PAYLOAD","LAUNCH_DATE":"2022-05-13","ARG_OF_PERICENTER":"58.8719","CENTER_NAME":"EARTH","REV_AT_EPOCH":"130","MEAN_ELEMENT_THEORY":"SGP4","CLASSIFICATION_TYPE":"U","GP_ID":"210477695","SEMIMAJOR_AXIS":"6917.899","BSTAR":"0.00125460000000","INCLINATION":"53.2175","TLE_LINE2":"2 52552  53.2175 199.5217 0001450  58.8719 109.0929 15.08834014  1304","FILE":"3539615","RA_OF_ASC_NODE":"199.5217","NORAD_CAT_ID":"52552","OBJECT_ID":"2022-051V","DECAY_DATE":null,"MEAN_ANOMALY":"109.0929"},{"DECAY_DATE":null,"MEAN_ANOMALY":"33.6902","NORAD_CAT_ID":"52553","OBJECT_ID":"2022-051W","FILE":"3539615","RA_OF_ASC_NODE":"199.5242","INCLINATION":"53.2162","TLE_LINE2":"2 52553  53.2162 199.5242 0001912  54.2458  33.6902 15.08824903  1301","SEMIMAJOR_AXIS":"6917.927","GP_ID":"210478512","BSTAR":"0.00154000000000","CLASSIFICATION_TYPE":"U","MEAN_ELEMENT_THEORY":"SGP4","REV_AT_EPOCH":"130","ARG_OF_PERICENTER":"54.2458","LAUNCH_DATE":"2022-05-13","CENTER_NAME":"EARTH","OBJECT_TYPE":"PAYLOAD","REF_FRAME":"TEME","MEAN_MOTION_DDOT":"0.0000000000000","ELEMENT_SET_NO":"999","TIME_SYSTEM":"UTC","MEAN_MOTION_DOT":"0.00024296","PERIOD":"95.439","ECCENTRICITY":"0.00019120","OBJECT_NAME":"STARLINK-3858","MEAN_MOTION":"15.08824903","RCS_SIZE":"LARGE","APOAPSIS":"541.114","EPOCH":"2022-08-18T22:00:00.999936","COUNTRY_CODE":"US","TLE_LINE1":"1 52553U 22051W   22230.91667824  .00024296  00000-0  15400-2 0  9997","SITE":"AFWTR","EPHEMERIS_TYPE":"0","PERIAPSIS":"538.469"},{"CENTER_NAME":"EARTH","LAUNCH_DATE":"2022-05-13","ARG_OF_PERICENTER":"49.9999","REV_AT_EPOCH":"130","OBJECT_TYPE":"PAYLOAD","CLASSIFICATION_TYPE":"U","MEAN_ELEMENT_THEORY":"SGP4","RA_OF_ASC_NODE":"204.5471","FILE":"3539615","BSTAR":"0.00174920000000","SEMIMAJOR_AXIS":"6917.935","GP_ID":"210477969","TLE_LINE2":"2 52554  53.2164 204.5471 0002327  49.9999 190.4403 15.08821995  1303","INCLINATION":"53.2164","MEAN_ANOMALY":"190.4403","DECAY_DATE":null,"OBJECT_ID":"2022-051X","NORAD_CAT_ID":"52554","PERIAPSIS":"538.191","EPHEMERIS_TYPE":"0","COUNTRY_CODE":"US","EPOCH":"2022-08-18T22:00:00.999936","SITE":"AFWTR","TLE_LINE1":"1 52554U 22051X   22230.91667824  .00027647  00000-0  17492-2 0  9994","PERIOD":"95.439","ECCENTRICITY":"0.00023270","MEAN_MOTION_DOT":"0.00027647","OBJECT_NAME":"STARLINK-3770","APOAPSIS":"541.410","MEAN_MOTION":"15.08821995","RCS_SIZE":"LARGE","REF_FRAME":"TEME","TIME_SYSTEM":"UTC","ELEMENT_SET_NO":"999","MEAN_MOTION_DDOT":"0.0000000000000"},{"SITE":"AFWTR","TLE_LINE1":"1 52555U 22051Y   22230.91667824  .00023122  00000-0  14656-2 0  9998","COUNTRY_CODE":"US","EPOCH":"2022-08-18T22:00:00.999936","PERIAPSIS":"538.525","EPHEMERIS_TYPE":"0","TIME_SYSTEM":"UTC","ELEMENT_SET_NO":"999","MEAN_MOTION_DDOT":"0.0000000000000","REF_FRAME":"TEME","APOAPSIS":"540.891","MEAN_MOTION":"15.08852314","RCS_SIZE":"LARGE","PERIOD":"95.437","OBJECT_NAME":"STARLINK-3949","MEAN_MOTION_DOT":"0.00023122","ECCENTRICITY":"0.00017100","MEAN_ELEMENT_THEORY":"SGP4","CLASSIFICATION_TYPE":"U","OBJECT_TYPE":"PAYLOAD","CENTER_NAME":"EARTH","ARG_OF_PERICENTER":"76.8308","LAUNCH_DATE":"2022-05-13","REV_AT_EPOCH":"130","OBJECT_ID":"2022-051Y","NORAD_CAT_ID":"52555","MEAN_ANOMALY":"51.1779","DECAY_DATE":null,"BSTAR":"0.00146560000000","GP_ID":"210478242","SEMIMAJOR_AXIS":"6917.843","TLE_LINE2":"2 52555  53.2163 199.5222 0001710  76.8308  51.1779 15.08852314  1306","INCLINATION":"53.2163","FILE":"3539615","RA_OF_ASC_NODE":"199.5222"},{"REF_FRAME":"TEME","MEAN_MOTION_DDOT":"0.0000000000000","TIME_SYSTEM":"UTC","ELEMENT_SET_NO":"999","PERIOD":"95.438","MEAN_MOTION_DOT":"0.00029685","ECCENTRICITY":"0.00024660","OBJECT_NAME":"STARLINK-3763","RCS_SIZE":"LARGE","MEAN_MOTION":"15.08829048","APOAPSIS":"541.485","COUNTRY_CODE":"US","EPOCH":"2022-08-18T22:00:00.999936","SITE":"AFWTR","TLE_LINE1":"1 52556U 22051Z   22230.91667824  .00029685  00000-0  18759-2 0  9997","PERIAPSIS":"538.073","EPHEMERIS_TYPE":"0","MEAN_ANOMALY":"207.6370","DECAY_DATE":null,"OBJECT_ID":"2022-051Z","NORAD_CAT_ID":"52556","RA_OF_ASC_NODE":"204.5473","FILE":"3539615","TLE_LINE2":"2 52556  53.2160 204.5473 0002466  52.8949 207.6370 15.08829048  1306","INCLINATION":"53.2160","BSTAR":"0.00187590000000","GP_ID":"210478106","SEMIMAJOR_AXIS":"6917.914","CLASSIFICATION_TYPE":"U","MEAN_ELEMENT_THEORY":"SGP4","REV_AT_EPOCH":"130","CENTER_NAME":"EARTH","ARG_OF_PERICENTER":"52.8949","LAUNCH_DATE":"2022-05-13","OBJECT_TYPE":"PAYLOAD"},{"NORAD_CAT_ID":"52557","OBJECT_ID":"2022-051AA","DECAY_DATE":null,"MEAN_ANOMALY":"116.7804","SEMIMAJOR_AXIS":"6917.840","GP_ID":"210478378","BSTAR":"0.00141590000000","INCLINATION":"53.2181","TLE_LINE2":"2 52557  53.2181 199.5230 0001621  71.2187 116.7804 15.08853308  1303","FILE":"3539615","RA_OF_ASC_NODE":"199.5230","MEAN_ELEMENT_THEORY":"SGP4","CLASSIFICATION_TYPE":"U","OBJECT_TYPE":"PAYLOAD","ARG_OF_PERICENTER":"71.2187","LAUNCH_DATE":"2022-05-13","CENTER_NAME":"EARTH","REV_AT_EPOCH":"130","ELEMENT_SET_NO":"999","TIME_SYSTEM":"UTC","MEAN_MOTION_DDOT":"0.0000000000000","REF_FRAME":"TEME","APOAPSIS":"540.826","MEAN_MOTION":"15.08853308","RCS_SIZE":"LARGE","ECCENTRICITY":"0.00016210","PERIOD":"95.437","MEAN_MOTION_DOT":"0.00022326","OBJECT_NAME":"STARLINK-3943","TLE_LINE1":"1 52557U 22051AA  22230.91667824  .00022326  00000-0  14159-2 0  9993","SITE":"AFWTR","EPOCH":"2022-08-18T22:00:00.999936","COUNTRY_CODE":"US","EPHEMERIS_TYPE":"0","PERIAPSIS":"538.583"},{"OBJECT_ID":"2022-051AB","NORAD_CAT_ID":"52558","MEAN_ANOMALY":"126.2018","DECAY_DATE":null,"BSTAR":"0.00085579000000","SEMIMAJOR_AXIS":"6917.856","GP_ID":"210477559","TLE_LINE2":"2 52558  53.2078 189.5755 0002205  56.8402 126.2018 15.08848093  1306","INCLINATION":"53.2078","FILE":"3539615","RA_OF_ASC_NODE":"189.5755","MEAN_ELEMENT_THEORY":"SGP4","CLASSIFICATION_TYPE":"U","OBJECT_TYPE":"PAYLOAD","CENTER_NAME":"EARTH","LAUNCH_DATE":"2022-05-13","ARG_OF_PERICENTER":"56.8402","REV_AT_EPOCH":"130","TIME_SYSTEM":"UTC","ELEMENT_SET_NO":"999","MEAN_MOTION_DDOT":"0.0000000000000","REF_FRAME":"TEME","APOAPSIS":"541.246","RCS_SIZE":"LARGE","MEAN_MOTION":"15.08848093","PERIOD":"95.437","MEAN_MOTION_DOT":"0.00013361","OBJECT_NAME":"STARLINK-3954","ECCENTRICITY":"0.00022050","SITE":"AFWTR","TLE_LINE1":"1 52558U 22051AB  22230.91667824  .00013361  00000-0  85579-3 0  9998","COUNTRY_CODE":"US","EPOCH":"2022-08-18T22:00:00.999936","PERIAPSIS":"538.195","EPHEMERIS_TYPE":"0"},{"MEAN_ELEMENT_THEORY":"SGP4","CLASSIFICATION_TYPE":"U","OBJECT_TYPE":"PAYLOAD","REV_AT_EPOCH":"130","CENTER_NAME":"EARTH","LAUNCH_DATE":"2022-05-13","ARG_OF_PERICENTER":"61.4070","OBJECT_ID":"2022-051AC","NORAD_CAT_ID":"52559","MEAN_ANOMALY":"156.3877","DECAY_DATE":null,"TLE_LINE2":"2 52559  53.2152 189.5340 0002362  61.4070 156.3877 15.08855114  1306","INCLINATION":"53.2152","BSTAR":"0.00044990000000","GP_ID":"210477832","SEMIMAJOR_AXIS":"6917.834","RA_OF_ASC_NODE":"189.5340","FILE":"3539615","SITE":"AFWTR","TLE_LINE1":"1 52559U 22051AC  22230.91667824  .00006882  00000-0  44990-3 0  9991","COUNTRY_CODE":"US","EPOCH":"2022-08-18T22:00:00.999936","PERIAPSIS":"538.065","EPHEMERIS_TYPE":"0","MEAN_MOTION_DDOT":"0.0000000000000","TIME_SYSTEM":"UTC","ELEMENT_SET_NO":"999","REF_FRAME":"TEME","RCS_SIZE":"LARGE","MEAN_MOTION":"15.08855114","APOAPSIS":"541.333","MEAN_MOTION_DOT":"0.00006882","PERIOD":"95.437","ECCENTRICITY":"0.00023620","OBJECT_NAME":"STARLINK-3953"}];
